STATE,SCHOOL_NAME,EMAIL,WEB_ADDRESS,CONTACT_INFO,ADDRESS_AND_PHONE_INFO,STUDENTS_INFO
Alabama,Bayshore Christian School,pmckee@bayshorechristian.org,http://www.bayshorechristian.org/,"Mrs. Pam McKee, Headmaster : 10/04 - MemberG","23050 US Hwy 98, Fairhope, AL  36532(251) 929-0011  FAX: (251) 928-0149E",K-10 (161 students)
Alabama,Cornerstone Classical Christian Academy,pstewart@ccamontgomery.org,http://www.ccamontgomery.org/,Priscilla Stewart : 5/06 - MemberG,"125 Calhoun Rd, Montgomery, AL 36109(334) 356-7788   FAX: none availableE", K-12 (97 students)
Alabama,Evangel Classical Christian School,kparks@evangelclassical.org,http://www.evangelclassical.org/,"Ted Trainor, Administrator : 9/00 - MemberG","ACCS Accredited Since February 2010  423 Thompson Road, Alabaster, AL  35007(205) 216-0149  FAX: (205) 216-0150E",K-12 (367 students)
Alabama,Great Books Honors College,rmwoods@faulkner.edu,http://studyliberalarts.org/,  Dr. Robert Woods : 6/10 - MemberG,"5345 Atlanta Highway, Montgomery, AL  36109E",College (60 students)
Alabama,Providence Christian School,elatta2@prov-cs.net,http://www.providencechristianschool.com/,"Emory Latta, Head of School               Kathy Compton, Logic/Rhetoric Principal               Darlene Jones, Grammar Principal : 2/96 - CharterG","  4847 Murphy Mill Road, Dothan, AL   36303(334) 702-8933  FAX (334) 702-0700E",1-12 (753 students)
Alabama,Providence Classical School,pcsoffice@providenceclassical.org,http://www.providenceclassical.org,Mrs. Pattie Steward : 2/05 - MemberG,"605 Clinton Ave. E, Huntsville, AL  35801(256) 852-8884  FAX: (256) 852-8884E",K-12 (194 students)
Alabama,Riverwood Classical School,secretary@riverwoodclassical.org,http://www.riverwoodclassical.org,"Kimberly Staggs, Grammar Principal : 2/09 - MemberG","501 Rice Valley Road North, Tuscaloosa, AL 35406(205) 758-5502   FAX: (205) 758-4212E",PreK-10 (25 students)
Alabama,The Westminster School at Oak Mountain,bgriffith@westminsterknights.org,http://www.westminsterknights.org,"Robbie Hinton, Head of School : 5/99 - MemberG","(formerly known as Oak Mountain Classical School)5080 Cahaba Valley Trace, Birmingham, AL  35242(205) 995-9694 FAX (205) 980-9095E",K-12 (531 students)
Alabama,Trinity Christian School,tcssecretary@bellsouth.net,http://www.tcsopelika.org/,"Mrs. Sharon C. Miller, Administrator              Mr. Larry Cornelius, Headmaster : 3/04 - MemberG","ACCS Accredited Since November 2012PO Box 311, Opelika, AL  36803 (mailing address)1010 India Road, Opelika, AL 36801 (facility address)(334) 745-2464  FAX: (334) 745-4856E",K-12 (166 students) 
Arizona,Logos Christian Academy,info@logosclassical.com,http://www.logosclassical.com,"Dr. Larry Stephenson, AdministratorEmail: Information : 5/10 - MemberG","PO Box 11493, Casa Grande, AZ 85130 (Mailing address)9745 N. Trekell Rd., Casa Grande, AZ  85122 (Facility address)(520) 421-1220  FAX: None availableContact: Dr. Larry Stephenson, AdministratorE",K-8  (48 students)
Arizona,United Christian School,kallegra@qwestoffice.net,http://www.cvucs.org,Mrs. Michele EvansEmail: Information : 11/14 - MemberG,"PO Box 3126, Camp Verde, AZ  86322 (Mailing address)903 W. Finnie Flat Rd., Camp Verde, AZ  86322 (Facility address)(928) 567-0415  FAX: (928) 567-9774Contact: Mrs. Michele EvansE",PreK-8 (101 students) 
Arizona,Veritas Christian Community School,jtinney@veritasccs.com,http://www.veritasccs.com,"  Jason Tinney, Headmaster : 10/03 - MemberG","ACCS Accredited since February 2012     215 Taylor Drive, Sierra Vista, AZ   85635(520) 417-1113   FAX:  (520) 417-0180 E",  K-12 (108 students)
Arizona,Wickenburg Christian Academy,office.wca@gmail.com,http://www.wickenburgchristianacademy.org,"Kevin Armstrong, Administrator : 10/12 - MemberG","260 W. Yavapai St., Wickenburg, AZ  85390(928) 684-5916  FAX: (928) 684-6104E",K-12 (89 students) 
Arkansas,Legacy Academy,chad.gallagher@legacymail.org,http://www.legacyacademyonline.com,"Jessica Gallagher, Headmaster : 9/08 - MemberG","314 West Gilson Ave., DeQueen, AR 71832(870) 642-8937   FAX: (866) 925-4549E-mail: InformationC",K-7 (52 students)
Arkansas,Pinnacle Classical Academy,pinnacleclassical@gmail.com,http://www.pinnacleclassical.com,"Chad Muller, Headmaster : 3/10 - MemberG","PO Box 241822, Little Rock, AR 72223-1822(501) 240-9080E",K-9 (20 students)
Arkansas,Veritas Academy ,veritas@cableone.net,http://www.veritasacademytxk.com,"Mr. House, Headmaster : 6/96 - MemberG","2101 E. 50th Street, Texarkana, AR  71854(870) 772-0646  FAX (870) 773-3424E-mail: InformationC",K-12 (39 students) 
California,Beacon Hill Classical Academy,devin@beaconhillclassical.org,http://www.beaconhillclassical.org/,"Dennis Deutsch, Headmaster : 11/08 - MemberG","2304 Antonio Ave., Camarillo, CA 93010(805) 389-6581   FAX: none availableE",K-8 (131 students)
California,Grace Classical Academy,gina@graceclassicalacademy.com,http://www.graceclassicalacademy.com/,"Gina Bonecutter, Administrator : 8/02 - Member G"," 24600 La Plata Dr, Laguna Niguel, CA  92677(949) 481-9250  FAX: None availableE",K-8 (102 students)
California,Harvest Christian School,info@harvestpetaluma.org,http://www.harvestpetaluma.org/,Jonathan Wraith : 4/06 - MemberG,"3700 Lakeville Hwy, Ste 210, Petaluma, CA  94954(707) 763-2954   FAX: (707) 763-0159E",K-8 (132 students)
California,Heritage Oak School,wendy@countryoaks.org,http://www.heritageoakschool.com/,"Amy Walker, Administrator : 4/99 - MemberG","     20915 Schout RD, Tehachapi, CA   93561(661) 823-0885  FAX:  (661) 823-0863E",K-12 (51 students)
California,Horizon Prep School,bgammel@horizonprep.org,http://www.horizonprep.org,Dr. Ken Kush : 8/06 - MemberG,"PO Box 9070, Rancho Santa Fe, CA  92067 (mailing address)6233 El Apajo Rd., Rancho Santa Fe, CA  92067 (facility address)(858) 756-5599  FAX: (858) 759-5827E",K-10 (313 students)
California,Logos Classical Institute of SVCS,pcrhee@svcschools.org,http://www.svcschools.org,"Paul Rhee, Head of School : 3/13 - MemberG","26333 Oso Rd., San Juan Capistrano, CA  92675(949) 443-4050  FAX: (949) 443-3941E",7-12 (30 students)
California,Olive Branch Christian Academy,mlogan@obcschool.org,http://obcschool.org/,"Mandy Logan, Administrator              Ryan Devine, Academic Administrator : 2/08 - MemberG","7702 El Cerrito Road, Corona, CA 92881(951) 279-9977   FAX: (951) 520-9797E",K-8 (145 students)
California,St. Abraham's Classical Christian Academy,st.abrahams@gmail.com,http://www.stabrahams.wordpress.com,Corey McEachran : 2/12 - MemberG,"1940 Bonita Dr., Aptos, CA 95003(831) 334-5361  FAX: None availableE",K-9 (90 students)
California,The Cambridge School,info@cambridgeclassical.org,http://www.cambridgeclassical.org/,"Mrs. Jean C. Kim, Head of School              Mrs. Jenni Helj, Grammar School Principal : 3/06 - MemberG","PO Box 720508, San Diego, CA 92172 (mailing address)12855 Black Mountain Rd., San Diego, CA 92129 (facility address)(858) 484-3488  FAX: (858) 484-3458E",Kprep-9 (202 students)
California,Trinity Classical Academy,elizabethfroemming@sbcglobal.net,http://www.trinityclassicalacademy.com/,Mrs. Liz Caddow : 8/01 - MemberG,"  PO Box 802679, Santa Clarita, CA   91380(661) 296-2601   FAX: (661) 296-2601E",TK-12 (553 students)
California,Veritas Classical Academy,prlopez@kc.rr.com,http://www.veritasclassicalacademy.com,"Dr. David Kim, Headmaster : 10/14 - MemberG","4411 El Camino Real, Irvine, CA  92602 (mailing address)6550 Fairmont Blvd., Yorba Linda, CA  92886 (facility address)(714) 783-6731  FAX: None availableE",K-12 (44 students)G
Colorado,Arma Dei Academy,robi.marshall@armadeiacademy.com,http://www.armadeiacademy.com,"Robi Marshall, Principal : 7/12 - MemberG","345 E. Wildcat Reserve Parkway, Highlands Ranch, CO  80126(720) 363-1041  FAX: (720) 221-5045E",K-8 (67 students)
Colorado,Cornerstone Classical School,cornerstonebasalt@gmail.com,http://www.cornerstonebasalt.com,"Renee Miller, Director : 1/14 - MemberG","20449 Highway 82, Basalt, CO  81621(970) 927-9106  FAX: None availableE",K-12 (30 students)
Colorado,Evangelical Christian Academy,jjohnson@ecaeagles.org,http://www.ecaeagles.org,"Dr. Jim Johnson, Superintendent : 4/09 - MemberG","4052 Nonchalant Cir.S. Colorado Springs, CO 80917 (Secondary)2511 N. Logan Ave, Colorado Springs, CO 80907 (Elementary)(719) 597-3675   FAX: (719) 550-5857E",Prek-12 (270 students)
Colorado,Highlands Classical Academy,info@hcadenver.org,http://www.hcadenver.org,"Nate Ahern, Head of School : 2/12 - MemberG","6400 W. 26th Ave., Edgewater, CO  80214 (mailing address)3025 W. 37th Ave., Denver, CO  80211 (facility address)(720)446-6286  FAX: none availableE",PreK-7 (49 students)
Colorado,Winter Park Christian School,sbeckerle@wpcc4him.org,http://www.wpcc4him.org,"Ed Beckerle, Headmaster : 3/12 - MemberG","P.O. Box 518, Tabernash, CO 80478 (mailing address)274 Ponderosa Trail, Tabernash, CO 80478 (facility address)(970) 887-9784  FAX: (970) 887-9785E",K-12 (57 students)
Colorado,Confidential Financial Services,jshelhamer@dev-test.com,http://www.cfainfo.net,John D. Shelhamer : 10/12 - Affiliate Business         ,"Colorado Springs, COC",""
Connecticut,Grace Academy New Haven,administrator@graceacademynewhaven.org,http://www.graceacademynewhaven.org,"Jennifer Cheng : 10/11 - Affiliate BusinessJennifer ChengGuilford, CTContact: Jennifer Cheng : 8/08 - Affiliate Individual         ","135 Whitney Ave., New Haven, CT  06150(203) 675-3268  FAX: (203) 777-5332C",""
Delaware,Geneva Academy,info@genevaacademyofde.com,http://www.genevaacademyofde.com/,Pastor James Dundas              Carla Y. Deason : 7/08 - MemberG,"PO Box 61, Lincoln, DE 19960 (mailing address)11146 Ponder Rd, Lincoln, DE 19960 (facility address)(302) 500-2087   FAX:  (302) 424-2166E",K-12 (38 students)
Delaware,Tall Oaks Classical School,mainoffice@talloaksde.org,http://www.talloaksde.org/,"Dr. Timothy Dernlan, Head of School : 2/96 - MemberG","ACCS Accredited since April 2009903 E. Basin Road, New Castle, DE 19720(302) 738-3337   FAX: (302) 328-7886E",K-12 (201 students)
Delaware,Advance Christian Schools,harold@advancechristianschools.com,http://www.advancechristianschools.com,Harold Naylor : 7/14 - Affiliate Business,"Wilmington, DEC",""
Delaware,Schola Inbound Enrollment Marketing,ralphc@schoolinboundmarketing.com,http://www.schoolinboundmarketing.com,Ralph Cochran : 12/14 - Affiliate Business       ,"Wilmington, DEC",""
Florida,Addison Academy,brettfurlong@me.com,http://www.addisonacademy.org,"Brett Furlong, Executive Director : 1/15 - MemberG","1306 SW 18th St., Cape Coral, FL  33991 (mailing address)8400 Cypress Lake Dr., Fort Myers, FL  33919 (facility address)(239) 444-8662  FAX: none availableE",PK-5 (0 students)
Florida,Classical Christian Academy of the Palm Beaches,ccapb128@gmail.com,http://www.ccapb.com,"Bonnie Fanelli, Founder : 1/15 - MemberG","128 N. C St., Lake Worth, FL  33460(561) 469-970  FAX: none availableE",K-5 (0 students)
Florida,Covenant Christian School,info@ccs-pc.net,http://www.ccs-pc.net,"Glenda Delmar, Administrator  : 4/10 - MemberG","2350 Frankford Ave., Panama City, FL 32405(850) 769-7448  FAX: (850) 763-2104E",PreK3-12 (142 students)
Florida,Geneva Classical Academy,admin@genevaclassicalacademy.com,http://www.genevaclassicalacademy.com/,"","4204 Lakeland Highlands Rd., Lakeland, FL  33813(863) 644-1408   FAX:  (863) 619-5841E",K4-12  (122 students)
Florida,The Geneva School,rfingram@genevaschool.org,http://www.genevaschool.org/,Robert F. Ingram  : 7/94 - CharterG," 2025 State Road 436, Winter Park, FL  32792(407) 332-6363  FAX: (407) 332-1664E",K4-12 (474 students)
Florida,Heritage Christian Academy,jscott@hcawh.org,http://www.hcawh.org,Dr. John Scott : 4/01 - MemberG,"PO Box 819, Winter Haven, FL  33882 (mailing address)244 Avenue D SW, Winter Haven (facility address)(863) 293-0012  FAX:  (863) 299-4146E",PreK-6 (65 students)
Florida,"Libertas Academy, Inc.",libertasacademy@aol.com,http://www.libertasacademy.com/,  Mrs. Hannah Vickery : 7/04 - MemberG,"15102 Amberly Dr., Tampa, FL  33647(813) 964-1779  FAX: (813) 964-1779E",K-7 (24 students)
Florida,Riverbend Academy,jason@riverbendchurch.com,http://www.riverbendacademy.org/,"Pastor Jason Karr, Headmaster : 5/04 - MemberG","ACCS Accredited Since September 20092080 West Granada Boulevard, Ormond Beach, FL  32174(386) 615-0986  FAX: (386) 672-7945E",K-12 (217 students)
Florida,The Paideia School of Tampa Bay,susan.wilson@thepaideiaschool.org,http://www.thepaideiaschool.org/,"Dr. Timothy Bridges, Headmaster : 2/06 - MemberG","ACCS Accredited Since May 20137834 N. 56th Street, Tampa, FL 33617(813) 988-7700   FAX: (813) 988-7740E",K-12 (76 students)
Florida,Trinitas Christian School,trinitas@trinitaschristian.org,http://www.trinitaschristian.org/,Mr. Kenneth Trotter  : 6/99 - MemberG,"ACCS Accredited Since May 2010      3301 East Johnson Avenue, Pensacola, FL   32514(850) 484-3515   FAX: (850) 484-3590E",K5-12 (169 students)
Florida,Victory Academy Ocala,angelobonnie@aol.com,http://www.victoryacademyocala.com,"Carey V. Jones, Administrator : 2/14 - MemberG","3401 SE Lake Weir Avenue, Ocala, FL  34471(352) 622-4410  FAX: (352) 694-1003E",PreK-3 (25 students)E
Florida,Latin in the Christian Trivium,jsparkes08@aol.com,http://www.latintrivium.com/,"Fred and Mary Harrington : 06/08 - Affiliate BusinessDavid PetzGreen Cove Springs, FLEmail: dapetz@hotmail.com : 7/12 - Affiliate HomeschoolSmith Preparatory AcademyPO Box 521522, Longwood, FL 32752(407) 260-0157 Contact: Michael Phillips : 5/10 - Affiliate BusinessJodi SparkesLakeland, FLEmail: jsparkes08@aol.com : 6/14 - Affiliate Homeschool","8327 Phillips Rd. SW, Lakewood, WA 98498(858) 335-6311   FAX: none availableE",""
Florida,RenWeb School Management Software,davevaughan@juno.com,http://www.renweb.com,"Paul Baker : 4/08 - Affiliate BusinessDavid VaughanClewiston, FLEmail: davevaughan@juno.com : 8/11 - Affiliate Individual                        ","1607 Addison Ave., Boca Raton, FL  33486(561) 447-7380  FAX: (413) 431-7380Contact: Paul BakerDOM: 4/08 - Affiliate BusinessDavid VaughanClewiston, FLE",""
Georgia,Atlanta Classical Christian Academy,office@accak12.org,http://www.accak12.org/,"Mr. Brett Edwards, Interim Head of School : 5/04 - MemberG","505 Atlanta St. SE, Marietta, GA  30060(770) 874-8885  FAX: (770) 874-8886E",PreK-9 (94 students)
Georgia,Covenant Academy,ca@covenantacademy.net,http://www.covenantacademy.net/,"Mr. Alan Wood, Headmaster : 6/07 - MemberG","4652 Ayers Road, Macon, GA  31210(478) 471-0285   FAX: (478) 471-8884E",K4-12 (394 students)
Georgia,Covenant Christian School,rball@ccssmyrna.org,http://www.ccssmyrna.org/,"  Mr. Randall Ball, Headmaster               Mrs. Barbara Hines, Principal : 5/01 - MemberG","3130 Atlanta Rd., Smyrna, GA  30080(770) 435-1596  FAX: (770) 436-5178E",K4-8  (221 students) 
Georgia,Dominion Classical Christian Academy,info@dominionclassical.org,http://www.dominionclassical.org/,"Mr. James Cain, Headmaster : 10/05 - MemberG","PO Box 744, Dacula, GA  30019 (mailing address)1416 Braselton Hwy, Lawrenceville, GA  30043 (facility address)(770) 338-7945   FAX: (678) 261-1721E",K4-10 (128 students)
Georgia,Heritage Preparatory School,administration@heritageprep.org,http://www.heritageprep.org/,"Rev. Soo Chang, Headmaster : 1/05 - MemberG","1700 Piedmont Avenue NE, Atlanta, GA  30324(404) 815-7711   FAX: (404) 815-7737E",PreK-8 (163 students)
Georgia,Providence Christian School,stacey.denard@pcsoxford.org,http://www.pcsoxford.org/,Mr. Ty Hensley : 5/07 - MemberG,"252 Byrd Road, Oxford, GA  30054(770) 788-6618   FAX: (770) 385-4988E",PreK-12 (112 students)
Georgia,Trinity Classical School,lgotsch@trinityclassical.org,http://www.trinityclassical.org,Glenn Jones : 1/09 - MemberG,"235 Harvest Church Rd, Clarkesville, GA 30523(706) 754-7686   FAX: none availableE",K-12 (38 students)
Georgia,Academy,info@veritassavannah.org,http://www.veritassavannah.org/,"Mr. Brett Edwards, Interim Head of School : 5/04 - MemberG","505 Atlanta St. SE, Marietta, GA  30060(770) 874-8885  FAX: (770) 874-8886E",PreK-9 (94 students)C
Georgia,"Lighthouse Classical Homeschooler's Academy, Inc",allison.jb.earle@gmail.com,http://www.lchacarrollton.com,Mrs. Allison Earle : 3/10 - Affiliate Business,"PO Box 1766, Carrollton, GA  30112(770) 296-7130  C",""
Georgia,RAYS for Christ Cooperative,rays4christcoop@gmail.com,http://www.rays4christ.org,Information : 10/14 - Affiliate Homeschool         ,"Social Circle, GAC",""
Hawaii,Trinity Christian School,ssprague@tcskailua.net,http://www.tcskailua.net,Ginger Moratin - Admissions              Stephen Sprague - Head of School : 1/10 - MemberG,"875 Auloa Road, Kailua, HI(808) 262-8501  FAX: (808) 261-3916E",  PreK-12 (345 students) 
Idaho,Classical Christian Academy,dhopper@classicalchristian.com,http://www.classicalchristian.com/,"Mr. Dan Hopper, Headmaster              Mr. Shawn Roberts, Associate Headmaster : 3/96 - CharterG","2289 W. Seltice Way, Post Falls, ID 83854(208) 777-4400  FAX:  (208) 777-2544E",K4-12 (170 students)
Idaho,The Ambrose School,office@theambroseschool.org,http://www.foundationsacademy.org/,"Mr. Kirk Vanderleest, Headmaster : 2/01 - MemberG","ACCS Accredited Since May 20066100 N. Locust Grove Rd, Meridian, ID 83646(208) 323-3888  FAX: (208) 672-0522E",K-12 (510 students)
Idaho,Logos Online School,gene@canonpress.com,http://www.logospressonline.com,Dr. Larry Stephenson : 10/13 - MemberG,"207 N. Main, Moscow, ID  838431-800-488-2034  FAX: None availableE",9-12 (38 students)
Idaho,Logos School,logosmain@turbonet.com,http://www.logosschool.com/,"  Mr. Tom Garfield, Superintendant               Mr. Matt Whitling, Elementary Principal : 10/94 - CharterG","ACCS Accredited Since January 2000         110 Baker Street, Moscow, ID   83843(208) 882-1226   FAX: (806) 209-8511E",PreK-12  (380 students)
Idaho,New St. Andrews College,bschlect@nsa.edu,http://www.nsa.edu/,Dr. Roy Atwood : 12/94  - CharterG,"     PO Box 9025, Moscow, ID   83843 (mailing address)405 S. Main St., Moscow, ID  83843 (facility address)(208) 882-1566  FAX: (208) 882-4293E",College (175 students)
Idaho,Canon Press,orders@canonpress.com,http://www.canonpress.com/shop/,Orders : 1/99 - Affiliate Business,"207 N. Main St., Moscow, ID  83843(800) 488-2034    C",""
Idaho,Logos Press,sandy@logospressonline.com,http://www.logospressshop.com/,Sandy Belschner : 11/08 - Affiliate Business,"110 Baker St., Moscow, ID 83843(208) 883-3199C",""
Idaho,Nova Classical Academy of Music,ncamcontact@gmail.com,http://www.novaclassical.com,Dustan Chevalier : 9/14 - Affiliate Business,"1123 S. Harrison St. #10, Moscow, ID  83843(864) 918-5075C",""
Idaho,Roman Roads Media,daniel@romanroadsmedia.com,http://www.romanroadsmedia.com,Daniel Foucachon : 12/14 - Affiliate Business          ,"739 S. Hayes St., Moscow, ID  83843(208) 596-8190C",""
Illinois,Aletheia Christian School of Peoria,info@peoriaclassical.org,http://www.peoriaclassical.org/,Chris Marchand : 5/21/2003  -  MemberG,"  7229 N. Knoxville Ave., Peoria, IL  61614(309) 635-9809   FAX: none availableE",PreK-9 (33 students)
Illinois,Clapham School,info@claphamschool.com,http://www.claphamschool.com/,Mr. Douglas Reynolds : 7/06 - MemberG,"PO Box 209, Wheaton, IL 60187 (mailing address)c/o College Church, 332 E. Seminary, Wheaton, IL 60137 (facility address)(630) 547-5125   FAX: none availableE",PreK-10 (111 students)
Illinois,Naperville Christian Academy,jmccord@ncaclassical.org,http://www.ncaclassical.org/,"Mrs. Rebecca Ruff, Headmaster : 3/06 - MemberG","1451 Raymond Drive, Suite 200, Naperville, IL 60563(630) 637-9622   FAX: (630) 355-1828E",PS-12 (84 students)
Illinois,Classical Consortium Academy,phillip@martin18.com,http://www.classicalconsortiumacademy.org,"Jennifer Burns  : 3/06 - Affiliate BusinessPhillip A. MartinWaterman, ILEmail: Phillip : 9/10 - Affiliate Individual         ","204 N. Old Rand Rd., Lake Zurich, IL  60047(224) 677-5237Contact: Jennifer Burns DOM: 3/06 - Affiliate BusinessPhillip A. MartinWaterman, ILE",""
Indiana,Acacia Academy,rchoshaw@acaciaacademy.org,http://www.acaciaacademy.org/,Rob Hoshaw : 4/09 - MemberG,"830 South Main St., Kokomo, IN 46901(765) 457-5545   FAX: none availableE",K-8 (72 students)
Indiana,Coram Deo Academy,info@CoramDeo-IN.com,http://coramdeo-in.com/,"David Hardesty, Headmaster : 7/08 - MemberG","651 W. Main St, Carmel IN  46032(317) 844-4224   FAX: none available E",K-12 (104 students)
Indiana,Providence Christian Academy,info@providenceca.org,http://www.providenceca.org,Ed Vander Woude : 3/13 - MemberG,"PO Box 122, Schererville, IN  46376 (mailing address)8405 Alexander St., Schererville, IN  46375 (facility address)(708) 672-7900  FAX: none availableE",K-7 (27 students)
Indiana,one:ten communications,info@onetencommunications.com,http://www.onetencommunications.com,David Salmon : 3/14 - Affiliate Business,"South Bend, INC",""
Indiana,State History by A Helping Hand,statehistory@statehistory.net,http://www.statehistory.net,Joy Dean : 8/13 - Affiliate Business        ,"Indianapolis, INC",""
Iowa,Morning Star Academy,casey.shutt@msa-qc.org,http://www.morningstaracademy.org/,Dr. Casey Shutt : 1/98  - MemberG,"1426 Tanglefoot Lane, Bettendorf, IA   52722-2414(563) 359-5700  FAX: (563) 359-5737E",K-12 (223 students) 
Kansas,Cair Paravel Latin School,mcongdon@cpls.org,http://www.cpls.org/,"Melody Congdon, Superintendent : 5/95  - CharterG","ACCS Accredited Since October 2014635 SW Clay Street, Topeka, KS  66606-1431(785) 232-3878  FAX: (785) 232-0047E",K-12 (292 students)
Kansas,Classical School of Wichita,wortego@cswsaints.com,http://www.cswsaints.com/,"Mr. Wade Ortego, Head of School : 3/06 - memberG","6355 Willowbrook, Wichita, KS  67218(316) 773-9279   FAX: (316) 942-3291E",K-12 (221 students)
Kansas,Veritas Christian School,mhcbrain@aol.com,http://www.veritaschristianschool.org/,"Kelli Huslig, Administrator : 5/98 - MemberG","    256 N. Michigan, Lawrence, KS  66044(785) 749-0083  FAX:  (785) 749-0580E",K-12 (152 students)M
Kentucky,Cornerstone Classical Christian Academy,info@cornerstoneclassical.org,http://www.cornerstoneclassical.org/,Mr. John Paul Davis : 12/06 - MemberG,"1746 Coachtrail Drive, Hebron, KY  41048 (mailing address)3800 Church Street, Latonia, KY  41015 (facility address)(859) 640-5147  FAX: none availableE",K-7 (27 students)
Kentucky,Covenant Classical Academy,info@covenant-classical.org,http://www.covenant-classical.org/,Mr. Lance Harris : 2/98 - MemberG,"     13902 Factory Lane, Louisville, KY  40245(502) 243-0404   FAX: none availableE",K-8 (45 students)
Kentucky,New Covenant Christian Academy,ncca.siress@gmail.com,http://www.nccaky.org,Tara Siress : 5/10 - MemberG,"PO Box 348, Hardin, KY 42048 (mailing address)218 College St., Hardin, KY 42048 (physical address)270-437-3170E",K-5 (39 students)
Kentucky,Trinity Christian Academy,mrandle@trinitylex.org,http://www.tcalex.org/,Rev. Mark Randle : 10/98 - MemberG,"  3900 Rapid Run Dr., Lexington, KY  40515(859) 887-2513   FAX: (859) 887-2468E",PreK4-12 (356 students) 
Louisiana,Christ Presbyterian School,christpreschool@outlook.com,http://www.cpsbr.com,Mr. George T. Thompson : 10/06 - MemberG,"8025 Antioch Road, Baton Rouge, LA  70817-6402(225) 751-2065   FAX: none availableE",PreK-8 (42 students)
Louisiana,Geneva Academy,elang@genevaclassical.org,http://www.genevaclassical.org/,Mr. Edwin Lang : 4/06 - MemberG,"2507 Oliver Road, Monroe, LA  71201(318) 805-0116   FAX: (318) 387-5135E",K-12 (103 students)
Maine,Tree of Life School and Book Service Ltd.,treeofl@nbnet.nb.ca,http://www.treeoflifeathome.com/,Mr. Mike Flewelling  : 2/97 - Affiliate Business         ,"413 Military St., Suite 518, Houlton, ME  04730-3204(506) 328-6781     C",""
Maryland,Lighthouse Christian Academy,contact@lcacademy.org,http://www.lcacademy.org/,Mrs. Linda A. Whiting : 2/01  - MemberG,"       931 Love Point Road, Stevensville, MD  21666(410) 643-3034    FAX: (410) 604-2019E",K-12  (74 students)
Maryland,New Covenant Christian School ,nccs@ncpres.org,http://k12.ncpres.org/,  Mrs. Jean E. Armstrong : 11/97 - MemberG,"     128 St. Mary's Church Rd., Abingdon, MD  21009(443) 512-0771   FAX: (410) 569-3846E",PreK-12  (196 students)
Maryland,Redeemer Classical Christian School,info@rccs.org,http://www.rccs.org/,"Terry Cellini, Head of School : 3/98 - MemberG","6415 Mt. Vista Road, Kingsville, MD  21087(410) 592-9625   FAX: (410) 817-6904E",PreK-12 (242 students)
Maryland,Rockbridge Academy,learning@rockbridge.org,http://www.rockbridge.org/,Mr. Michael J. McKenna : 6/96 - MemberG,"ACCS Accredited Since October 2003   911 Generals Highway, Millersville, MD  21108(410) 923-1171  FAX: (410) 923-6588E",K-12 (347 students)
Maryland,St. Stephen's Classical Christian Academy,sscca@st-stephens-rec.com,http://www.ststephensclassical.org,Mr. John Dykes : 10/01 - MemberG,"    2275 Liberty Road, Eldersburg, MD  21784(410) 795-1249  FAX:  (410) 795-8820E",K-12 (89 students)
Maryland,Woodstream Christian Academy,drvonglockner@gmail.com,http://www.woodstreamacademy.com,Dr. Rachel Ballard : 9/14 - MemberG,"9800 Lottsford Road, Mitchellville, MD  20721(301) 955-1160  FAX: (301) 955-1169E",K2-12 (315 students)D
Maryland,Granite Classical Tutorials ,info@graniteclassical.org,http://www.graniteclassical.org/,Mrs. Ava Paul  : 7/00 - Affiliate Business,"10001-A  Route108, Columbia, MD  21044(410) 299-8215   FAX: none availableC",""
Maryland,Harrison & Associates,tim@harrisonandassociatesllc.com,http://www.harrisonandassociatesllc.com,"Timothy T. Harrison, CPA : 4/14 - Affiliate Business          ","11722 Taneytown Pike, Taneytown, MD  21787(301) 473-3007  FAX: None availableC",""
Massachusetts,Grace Academy,academy@graciouscall.org,http://www.graceacademyspringfield.org,"Carmen Rizzo, Administrator : 8/14 - MemberG","60 Bowles Park, Springfield, MA  01104(413) 781-0332  FAX: sameE",K-12 (19 students)
Massachusetts,The IMAGO School,imago@imagoschool.org,http://imagoschool.org/,"  Miss Judith Ward, Headmistress : 6/96 - MemberG","1 Percival Street, Maynard, MA   01754(978) 897-0549   FAX:  (978) 897-3094E",K-8 (70 students)
Massachusetts,Samuel Fuller School,headmaster@samuelfullerschool.org,http://www.samuelfullerschool.org/,"Carol Brown, Co-Head of School              Alia Rivers, Co-Head of School : 7/07 - MemberG","6 Plympton St., Middleborough, MA  02346(508) 947-3217   FAX: none availableE",K-8 (52 students)
Massachusetts,Veritas Academy,tphoffrage@hotmail.com,http://www.veritasacademycapecod.com/,Mr. Thomas Hoffrage : 8/00 - MemberG,"PO Box 940, W. Barnstable, MA   02668 (mailing address)1200 Old Stage Rd., Centerville, MA  02632 (physical address)(508) 420-8145  FAX:  (508) 420-8145 E",PreK-8 (28 students)
Massachusetts,Rediker Software,sales@rediker.com,http://www.rediker.com,Email : 4/2010 - Affiliate Business          ,"Hampden, MA  01036Contact: E",""
Michigan,Bloomfield Christian School,info@bloomfieldchristian.com,http://www.bloomfieldchristian.com,"  Mrs. Robin Schmidt, Headmaster : 7/94 - CharterG","(Formerly known as Christian Leadership Academy)ACCS Accredited Since April 20133570 Telegraph Rd., Bloomfield Hills, MI  48302(248) 499-7800   FAX: (248) 499-3359E",K-12 (114 students)
Michigan,Midland Christian School,rhonda.sarafolean@midlandchristianschool-mi.org,http://www.midlandchristianschool-mi.org/,"Mr. Eric Robyn, Administrator : 1/07 - MemberG","4417 W. Wackerly St., Midland, MI  48640(989) 835-9881   FAX: (989) 835-5201E",PreK3-12 (100 students)
Michigan,Oakdale Academy,admin@oakdaleacademy.com,http://www.oakdaleacademy.com,"Mrs. Rachel Greb, Head of School : 1/13 - MemberG","3200 Beacham Drive, Waterford, MI  48329(248) 333-4309  FAX: (248) 333-7098E",PreK-12 (98 students)
Michigan,Trinitas Classical School ,tszimmerman@reagan.com,http://www.trinitasclassical.org/,Mr. Peter Marth : 7/06 - MemberG,"1465 Three Mile Rd. NW, Grand Rapids, MI 49544 (mailing address)1226 Union Ave. NE, Grand Rapids, MI 49505 (facility address)(616) 855-6518   FAX: (616) 855-6962E",K-8 (66 students)H
Minnesota,Agape Christi Academy,info@agapechristi.com,http://www.agapechristi.com,"Jeb Culbertson, Administrator : 3/13 - MemberG","9957 Valley View Rd., Eden Prairie, MN  55344(952) 856-0103  FAX: None availableE",K-5 (25 students)
Minnesota,Liberty Classical Academy,info@libertyclassicalacademy.org,http://www.libertyclassicalacademy.org/,"Mrs. Rebekkah Hagstrom, M. A. : 6/02 - MemberG","    3878 Highland Ave., White Bear Lake, MN  55110(651) 772-2777  FAX:  (651) 776-0393 (call first)E",PreK-12 (170 students)
Minnesota,Schaeffer Academy,info@schaefferacademy.org,http://www.schaefferacademy.org/,  Mr. Keith Phillips : 12/95 - CharterG,"ACCS Accredited since June 2006 2700 Schaeffer Lane NE, Rochester, MN   55906(507) 286-1050   FAX:  (507) 282-3823E",K-12 (361 students)
Mississippi,Regents School of Oxford,mjohnson@regentsofoxford.org,http://www.regentsofoxford.org,Dr. Michael Johnson : 6/10 - MemberG,"ACCS Accredited Since October 201314 County Road 130, Oxford, MS 38655(662) 232-1945  FAX: (662) 232-8818E",PreK-12 (183 students)
Mississippi,The Veritas School,searnhart@theveritasschool.org,http://www.theveritasschool.org,Tray Earnhartdt : 6/01 - MemberG,"1202 Highland Colony Pkwy, Ridgeland, MS  39157(601) 713-1555  FAX: (601) 605-1306E",6-12 (83 students) 
Missouri,Faith Christian Academy,office@fcaclassical.com,http://www.fcaclassical.com/,"Mr. Matt Greco, Headmaster             Mr. Howard Eames, Headmaster Emeritus : 2/04 - MemberG","3500 NE Prather Rd, Kansas City, MO  64116(816) 455-3513   FAX: (816) 455-0982E",K-12 (248 students)
Missouri, ,,http://www.fcaclassical.com/,"Mr. Matt Greco, Headmaster             Mr. Howard Eames, Headmaster Emeritus : 2/04 - MemberG","schools are listed first, followed by affiliate members Alphabetical List          State ListFaith Christian Academy3500 NE Prather Rd, Kansas City, MO  64116(816) 455-3513   FAX: (816) 455-0982E",K-12 (248 students)G
Missouri,Heritage Classical Christian Academy,jwood@heritageclassical.org,http://www.heritageclassical.org,"Jason W. Wood, Executive Director : 7/12 - MemberG","625 Meramec Station Rd., Manchester, MO  63021(636) 394-8063  FAX:None availableE",6-12 (64 students)
Missouri,Ozarks Christian Academy,info@ozarkschristianacademy.com,http://www.ozarkschristianacademy.com/,"Mr. Martin Winslow, Headmaster : 1/06 - MemberG","PO Box 1620, West Plains, MO  65775(417) 255-1622   FAX: None availableE",PreK - 12 (105 students)
Missouri,Providence Classical Christian Academy,info@providencestl.org,http://www.providencestl.org,"Mr. Jonathan Mattull, Headmaster : 10/96 - MemberG","5293 S. Lindbergh Blvd., St. Louis, MO  63126(314) 842-6846   FAX: (314) 842-8935E",K–12  (133 students) 
Missouri,School of the Ozarks (Campus Lab High School),bdolloff@cofo.edu,http://www.cofo.edu/labschool,Mr. Brad Dolloff :11/11G,"One Opportunity Ave., Point Lookout, MO  65726 (facility address)PO Box 17, Point Lookout, MO  65726 (mailing address)(417) 690-2325  FAX: (417) 690-2327E","K-6, 9-12 (230 students)"
Missouri,Whitefield Academy,randy@swetnamfarm.com,http://www.whitefieldacademy.org/,"Dr. Quentin Johnston, Interim Headmaster : 2/96 - Charter MemberG","ACCS Accredited Since February 20138929 Holmes, Kansas City, MO  64131(816) 444-3567   FAX: (816) 822-8405E",PreK-12 (224 students)T
Montana,Petra Academy,office@petraacademy.com,http://www.petraacademy.com/,"Sam Koenen, Headmaster : 4/01 - MemberG","ACCS Accredited Since June 20104720 Classical Way, Bozeman, MT  59718(406) 582-8165   FAX: (406) 556-8777E",K4-12 (180 students)
Montana,Summit Christian Academy,summitacademymt@gmail.com,http://www.gosummitacademy.com,"Robert Brown, Administrator : 5/14 - MemberG","PO Box 403, Livingston, MT  59047 (mailing address)#1 West End Rd., Livingston, MT  59047 (facility address)(406) 823-9155  FAX: (855) 308-7203E",K-12 (32 students)
Montana,Whitefish Christian Academy,tkotila@whitefishacademy.org,http://www.whitefishacademy.org,"Todd Kotila, Headmaster : 4/11 - MemberG","820 Ashar Ave., Whitefish, MT  59937406-862-5875  FAX: 406-862-3515E",PreK-8 (140 students) 
Nevada,Logos Christian Academy,logos@cccumm.net,http://www.logosfallon.com/,  Jack Beach : 5/00 - MemberG,"     665 Sheckler Rd, Fallon, NV  89406(775) 428-1825   FAX:  none availableE",K-8 (65 students) 
New Jersey,American Christian School,admin@acs-nj.org,http://www.americanchristianschool.org/,"","126 South Hillside Avenue, Succasunna, NJ  07876(973) 584-6616   FAX:  (913) 584-0686E",PreK-12 (210 students)
New Jersey,Stratford Classical Christian Academy,eblack@njclassical.com,http://www.njclassical.com,"Mr. Jonathan Jones, Headmaster : 5/03 - MemberG","710 W. Laurel Rd., Stratford, NJ  08084(856) 882-7222   FAX:  (856) 882-7226E",K-12 (87 students)
New Jersey,Trinity Christian School,tcsoffice@tcsnj.org,http://www.tcsnj.org,"Mr. Douglas Prol, Principal              Mr. Jeffrey Holcomb, Admin Director : 7/97 - MemberG","160 Changebridge Rd., Montville, NJ  07045(973) 334-1785  FAX: (973) 334-9282E",K-12 (178 students)
New Jersey,The Wilberforce School,business@wilberforceschool.org,http://www.wilberforceschool.org,"  Mr. Howe Whitman, Jr. and Dr. Karen Ristuccia : 2/05 - MemberG","99 Clarksville Road, Princeton Junction, NJ  08550(609) 924-6111   FAX: (609) 924-6995E",PreK-4 (156 students)
New Jersey,Smart Tuition,tara.christie@smarttuition.com,http://www.smarttuition.com,Catherine Blades : 7/08 - Affiliate Business          ,"One Woodbridge Center, Suite 800, Woodbridge, NJ 07095(800) 762-7808   FAX:  (866) 369-9811E",""
New Mexico,Calvary Christian Academy,nils@silvercca.org,http://www.silvercca.org,Nils Eng : 12/06 - MemberG,"PO Box 29, Silver City, NM  88062 (mailing address)3001 Highway 90 South, Silver City (facility address)(575) 388-4478   FAX: (575) 388-4114E",PreK-12 (67 students)
New Mexico,Imago Dei Academy,amieanna@aol.com,http://www.ida-alamo.org,Laura King : 1/08-MemberG,"1100 Michigan Ave, Alamogordo, NM 88310(575) 434-3903  FAX: same as voice phoneE",K5-12 (112 students)B
North Carolina,Bradford Academy,info@bradfordacademy.org,http://www.bradfordacademy.org/,"Jeff Johnston, Board President : 1/07 - MemberG","PO Box 147, Mebane, NC  27302 (mailing address)939 S. 3rd St., Mebane, NC  27302 (facility address)(336) 263-1262   FAX: none availableE",K-7 (74 students)
North Carolina,Cary Christian School,jdickman@carychristianschool.org,http://www.carychristianschool.org/,"Mr. Dell Cook, Superintendent              Mr. Frank Hollowell, Logic Principal              Mrs. Teena Armstrong, Grammar Principal              Mrs. Ginger Hayes, Phonics Principal : 8/96 - MemberG","ACCS Accredited Since May 20021330 Old Apex Road, Cary, NC  27513(919) 303-2560   FAX: (919) 367-7558E",K-12 (787 students)
North Carolina,Covenant Classical School,mkuhn@covenantclassical.org,http://www.covenantclassical.org/,"Joel Staggers, Head of School : 4/04 - MemberG","     3200 Patrick Henry Dr., Concord, NC  28027(704) 792-1854   FAX: (704) 792-2102E",  K4-12 (212 students)
North Carolina,Haw River Christian Academy,info@hawriverchristian.org,http://www.hawriverchristian.org/,Mrs. Kelly Butler : 8/07 - MemberG,"2428 Silk Hope Gum Springs Rd., Pittsboro, NC  27312(919) 533-4139   FAX: none availableE",JK-9 (65 students)
North Carolina,Hickory Christian Academy ,dhodges@hickorychristian.com,http://www.hickorychristianacademy.com/,Mr. Tracy Robinson : 5/97 - MemberG,"    3260 6th Street Drive NW, Hickory, NC   28601(828) 324-5405   FAX: (828) 324-4353E",PreK-12 (474 students)
North Carolina,Renaissance Classical Christian Academy,info@rccaonline.com,http://www.rccaonline.com/,"Mr. Ray Hendrickson, Headmaster : 8/08 - MemberG","6427 Cliffdale Rd, Fayetteville, NC 28314(910) 221-0400   FAX: (910) 864-5476E",PreK4-10 (78 students)
North Carolina,Sandhills Classical Christian School,office@sandhillsccs.org,http://www.sandhillsccs.org/,"  Mrs. Joanna Martin, Principal : 2/00 - MemberG","     PO Box 2600, Southern Pines, NC  28388 (Mailing address)387 W. Pennsylvania Ave., Southern Pines, NC  28387 (Physical address)(910) 695-1874   FAX: (910) 401-1335E",K-10 (169 students)
North Carolina,Veritas Christian Academy ,jessicamcgehee08@gmail.com,http://www.veritasnc.org/,"Mrs. Kay Belknap, Head of School : 8/98 - MemberG","    17 Cane Creek Road, Fletcher, NC   28732-9470(828) 681-0546   FAX: (828) 681-0547E",PreK-12 (349 students)
Ohio,Mars Hill Academy,james.waldy@marshill.edu,http://www.marshill.edu/,"  Mr. Roger Wismer, Headmaster,                Paul Brinkerhoff, Academic Dean                James Waldy, Elementary Principal : 3/96 - MemberG","ACCS Accredited Since October 2005  4230 Aero Drive,  Mason, OH  45040 (Cincinnati area)(513) 770-3223  Fax: (513) 770-3443E",K-12 (343 students)
Ohio,Westside Christian Academy,jwhiteman@westsideacademy.org,http://www.westsideacademy.org,"James Whiteman, Headmaster : 4/14 - MemberG","23096 Center Ridge Road, Westlake, OH  44145(440) 331-1300  FAX: (440) 331-1301E",K-8 (101 students)
Ohio,Christian Healthcare Ministries,questions@chministries.org,http://www.chministries.org,Joy Spriggs : 4/14 - Affiliate Business,"127 Hazelwood Ave., Barberton, OH  442031 (800) 791-6225  FAX: (330) 798-5523E",""
Ohio,Sevenstar,peggy_junker@sbcglobal.com,http://www.sevenstar.org,"Dr. R. Mark Beadle : 3/13 - Affiliate BusinessVeritas Academy(A Study Center Serving the Homeschool Community)6200 Linworth Rd, Worthington, OH 43085(614) 885-2810Email: InformationContact: Jeff Weiland : 1/01 - Affiliate Business         ","3630 Park 42 Dr., Cincinnati, OH  45246(513) 612-1029 ext. 4000E",""
Oklahoma,The Academy of Classical Christian Studies,office@theacademyok.org,http://www.theacademyok.org,"Mr. Craig Dunham, Head of School : 8/13 - MemberG","(formerly Providence Hall and Veritas Classical Academy)1120 E. Hefner Road, Oklahoma City, OK  73131(405) 478-2077  FAX: None availableE",PreK3-9 (403 students)
Oklahoma,Augustine Christian Academy,office@acatulsa.org,http://www.acatulsa.org/,"Mr. John Ahrens, Director of Operations              Mr. Kirk Post, Headmaster : 1/05- MemberG","6310 East 30th Street, Tulsa, OK  74114(918) 832-4600  FAX:  (918) 832-4595E",K4-12 (194 students)
Oklahoma,Regent Preparatory School of OK,lwilliams@rpsok.org,http://www.rpsok.org/,Mr. Andrew Shapleigh : 5/02- MemberG,"  ACCS Accredited Since November 2011    8621 S. Memorial Dr., Tulsa, OK  74133(918) 663-1002  FAX: (918) 663-1004E",PreK-12  (480 students)
Oklahoma,Mindhenge Artifacts,mindhenge.artifacts@gmail.com,http://www.mindhengeartifacts.squarespace.com,Casey Shutt : 4/14 - Affiliate Business         ,"PO Box 2707, Edmond, OK  73083(405) 788-7267  FAX: (563) 359-5737C",""
Oregon,Geneva Academy,bturner@genevaroseburg.com,http://www.genevaroseburg.com,Mr. Brian Turner : 5/08 - MemberG,"PO Box 1154, Roseburg, OR  97470 (mailing address)2152 NE Vine St., Roseburg, OR  97470 (facility address)(541) 637-7500   FAX: none availableE",K-12 (84 students)
Oregon,Paideia Classical Christian School,paideiaoffice@gmail.com,http://www.paideiaclassicalchristian.com,"David Spears, Headmaster : 2/14 - MemberG","1423 Madison St., Oregon City, OR  97045 (mailing address)1636 S. Swan Ave., Oregon City, OR  97045 (physical address)(503) 974-4711  FAX: none availableE",K-5 (19 students)
Oregon,St. Stephen's Academy,csix@ststephensacademy.com,http://www.ststephensacademy.com/,  Mr. John Breckenridge : 1/05  - MemberG,"ACCS Accredited Since February 20127275 SW Hall Boulevard, Beaverton, OR  97008(503) 646-4617  FAX:  866-459-7715E",K-12 (213 students)
Oregon,Veritas School,info@veritasschool.net,http://www.veritasschool.net/,Mr. Bryan Lynch : 11/96 - MemberG,"ACCS Accredited Since October 2007     401 Mission Drive, Newberg, OR   97132(503) 538-1962   FAX: (503) 538-9229E",K-12 (221 students)
Oregon,King's Way Classical Academy Online,tmarkets@netzero.net,http://www.kingswayclassicalacademy.com,Dennis Oliver Woods : 8/01 - Affiliate Business         ,"(formerly ClassicalFree Virtual Academy)PO Box 4097, Clackamas, OR  97015 (503) 658-1755  FAX: (503) 658-0385C",""
Pennsylvania,Covenant Christian Academy,david.sonju@ccahbg.net,http://covenantchristianacademy.us/,  David Sonju : 2/97 - MemberG,"     1982 Locust Lane, Harrisburg, PA  17109(717) 540-9885   FAX:  (717) 540-7176E",PreK-12 (213 students)
Pennsylvania,Coventry Christian School,paulfisher@educatingforlife.com,http://www.coventrychristian.com,"Paul Fisher, Headmaster : 10/13 - MemberG","699 N. Pleasantview Rd., Pottstown, PA  19464(610) 326-3366  FAX: (610) 326-0085E",PreK-12 (315 students)
Pennsylvania,Grove City Christian Academy,office@grovecitychristianacademy.com,http://grovecitychristianacademy.com,Mr. Sidney Henriquez :  10/09 - MemberG,"301 N. Madison Avenue, Grove City, PA  16127(724) 458-5253    FAX: (724) 458-5259E",PreK-12 (125 students)
Pennsylvania,Veritas Academy,office@veritasacademy.com,http://www.veritasacademy.com/,  Mr. G. Tyler Fischer : 12/95 - CharterG,"ACCS Accredited since December 2002   26 Hillcrest Avenue, Leola, PA  17540(717) 556-0690   FAX:  (717) 556-0736E",K-12 (196 students)
Pennsylvania,Veritas Press Scholars Academy,jay@veritaspress.com,http://www.veritaspress.com,Mr. Marlin Detweiler             Mr. Larry Stephenson             Mr. Bruce Etter             Laurie Detweiler : 10/12 - MemberG,"1829 William Penn Way, Lancaster, PA  17601(717) 519-1974  FAX: (717) 519-1978E",K-12 (1864 students)
Pennsylvania,Classical Academic Press,info@classicalsubjects.com,http://www.classicalacademicpress.com/,Dr. Christopher Perrin : 4/04 - Affiliate Business,"3920 Market St., Camp Hill, PA  17011(717) 730-0711   C",""
Pennsylvania,"Veritas Press, Inc.",info@veritaspress.com,http://www.veritaspress.com/,Mr. Marlin Detweiler  : 1/98 - Affiliate Business,"1829 William Penn Way, Lancaster, PA  17601(800) 922-5082C",""
Pennsylvania,Writing Assessment Services,cindymarsch@writingassessment.com,http://www.writingassessment.com/,  Cynthia Marsch : 7/97 - Affiliate Business         ,"154 Dight Road, Slippery Rock, PA  16057(724) 738-9198C",""
Rhode Island,Aquidneck Island Christian Academy,aica.classical@verizon.net,http://www.aica-classical.org/,  Mr. Stephen Bailey : 4/02 - MemberG,"321 East Main Rd, Portsmouth, RI  02871(401) 849-5550   FAX: (401) 849-6811E",K-12 (38 students) 
South Carolina,Covenant Classical Christian School,bpevey@covenantcs.org,http://www.covenantcs.org/,"  Kevin Bolen, Headmaster : 3/99 - MemberG","     3120 Covenant Rd., Columbia, SC   29204(803) 787-0225   FAX:  (803) 782-7309E",PreK-12 (104 students)
South Carolina,Greenville Classical Academy,office@greenvilleclassical.com,http://www.greenvilleclassical.com/,"Tim Cockrell, Administrator : 10/04 - MemberG","2519 Woodruff Road, Simpsonville, SC  29681(864) 329-9884  FAX: (864) 987-9015E",K-12 (132 students)
South Carolina,New Covenant School,school@ncchurch.net,http://www.NCS.sc,"Joseph Canney, Administrator : 7/08 - MemberG","303 Simpson Road, Anderson, SC  29621(864) 224-5675  FAX: (864) 224-5985E",K-12 (100 students) 
South Dakota,Providence Classical Christian Academy,admissions@providencecca.com,http://www.providencecca.com,"Addison R. Tolentino, MD, Headmaster : 7/14 - MemberG","700 S. Sneve Ave., Sioux Falls, SD  57103(605) 610-8697  FAX: None availableE",PreK-3 (13 students)
South Dakota,Spearfish Classical Christian School,admin@spearfishclassicalchristian.org,http://www.spearfishclassicalchristian.org,"Brittany Damberg, Head of School : 11/11 - MemberG","PO Box 723, Spearfish, SD  57783-0723605-717-4019  FAX: None availableE",K-12 (64 students)
Tennessee,Agathos Classical School,office@agathosschool.com,http://www.agathosschool.com/,"Mr. Ted Trainor, Headmaster : 5/03 - MemberG","  1201 Mapleash Avenue, Columbia, TN   38401(931) 388-0556  FAX: (931) 388-0556E",PreK-12 (112 students)
Tennessee,Augustine School,dnelson@augustineschool.com,http://www.augustineschool.com/,  Mrs. Donna Nelson : 3/01 - MemberG,"                                                       1171 Old Humboldt Road, Jackson, TN   38305(731) 660-6822   FAX:  (731) 660-6833E",Jr. PreK-10 (90 students)
Tennessee,Candies Creek Academy,candiescreek@candiescreek.com,http://www.candiescreekacademy.com,Mr. Josh Brown : 3/14 - MemberG,"294 Old Eureka Road, Charleston, TN  37310(423) 790-5660  FAX: (423) 476-6607E",K-12 (46 students)
Tennessee,Christ's Legacy Academy,info@clak12.org,http://www.christslegacyacademy.org,"Dr. Shane Arnold, Headmaster : 4/10 - MemberG","964 County Road 180, Athens, TN 37303(423) 649-0040  FAX: (615) 549--9975E",K-12 (141 students)
Tennessee,Cornerstone Academy,info@camtn.com,http://www.cornerstoneacademymorristown.com/,Mr. Benjamin Holland : 3/06 - MemberG,"260 Jacobs Road, Morristown, TN 37813(423) 307-1189E",K-12 (143 students)
Tennessee,The Classical Academy of Franklin,info@tcafranklin.org,http://www.tcafranklin.org,"","810 Del Rio Pike, Franklin, TN  37064(615) 790-8556  FAX:  (615) 790-8617E",K-12  (105 students)
Tennessee,First Baptist Academy,mattmercer@fbaeagles.org,http://www.firstbaptistacademy.us,"Matt Mercer, Head of School : 1/07 - MemberG","7706 Ewing Rd., Powell, TN  37849(865) 947-8503  FAX: (800) 961-6525 E",K-12 (198 students)
Tennessee,Franklin Classical School,office@franklinclassical.com,http://www.franklinclassical.com,"Mr. Jeffrey Dokkestul, Headmaster : 1/05 - MemberG","PO Box 1601, Franklin, TN  37065 (mailing address)1215 Hillsboro Road, Franklin, TN  37069 (facility address)(615) 595-5337  FAX:  (615) 595-5339E",K-12 (120 students)
Tennessee,Highland Rim Academy,info@highlandrimacademy.org,http://www.highlandrimacademy.org/,Mr. Daniel Bailey : 8/07 - MemberG,"PO Box 3022, Cookeville, TN 38502 (mailing address)1621 N. Washington Ave., Cookeville, TN  38501 (facility address)(931) 526-4472  FAX: none availableE",K-12 (109 students)
Tennessee,Jonathan Edwards Classical Academy,office@jecanashville.org,http://JECANASHVILLE.ORG,  Ryan Boomershine : 9/09 - MemberG,"1022 S. Graycroft Ave., Madison, TN  37115(615) 876-7291   FAX: none availableE",  K-9  (78 students) 
Tennessee,New College Franklin,office@newcollegefranklin.org,http://www.newcollegefranklin.org/,"Mr. Greg Wilbur, Dean              Gene King, Associate Academic Dean              Tammy McCoy, Bursar, Registrar              Steve Crampton, Chairman of the Board : 1/09 - Member","PO Box 1575, Franklin, TN 37065 (mailing address)136 3rd Ave. South, Franklin, TN 37064 (facility address)(615) 815-8360   FAX: (866) 333-9001E",""
Tennessee,Paideia Academy,chale@paideiaknoxville.org,http://www.paideiaknoxville.org/,"Mr. Kent Capps, Upper School Principal : 5/04 - MemberG","10825 Yarnell Rd., Knoxville, TN   37932(865) 670-0440   FAX: (865) 670-0440E",K-9 (121 students)
Tennessee,Providence Academy,paknights@providenceacademy.com,http://www.providenceacademy.com/,  Mr. Jerry Williams : 3/96 - CharterG,"2788 Carroll Creek Rd., Johnson City, TN  37615(423) 854-9819   FAX:  (423) 854-8958E",K-12 (476 students)
Tennessee,Providence Christian Academy,pcaadm@providencechristian.com,http://www.providencechristian.com/,"  Mr. William Vaughn, Headmaster : 5/98 - MemberG","410 DeJarnett Lane, Murfreesboro, TN   37130(615) 904-0902   FAX:  (615) 904-0859E",K-12 (308 students)
Tennessee,Redeemer Classical Academy,contactus@redeemerclassicalacademy.com,http://www.redeemerclassicalacademy.com,"Lisa Carlton, Administrating instructor              Amanda Bell, Administrating instructor              Mike Williams, Administrating instructor : 12/13 - MemberG","PO Box 12169, Murfreesboro, TN  37129 (mailing address)1503 Sulphur Springs Rd., Murfreesboro, TN  37130 (facility address)(615) 274-904-0350  FAX: None availableE",K-12  (39 students)
Tennessee,Westminster Academy,dbhallman@nctc.com,http://www.wamemphis.com/,"  Debbie Frazier, Interim Head of School : 2/96 - CharterG","ACCS Accredited Since April 20022500 Ridgeway Road, Memphis, TN   38119(901) 380-9192   FAX:  (901) 405-2019E",K-12 (309 students)S
Texas,Alpha Omega Academy,aoa123@sbcglobal.net,http://www.alphaomegaacademy.org/,"  Mr. Paul Davidhizar, Headmaster : 1/98 - MemberG","  PO Box 8419, Huntsville, TX  77340 (mailing address)3891 Highway 30 West, Huntsville, TX (facility address)(936) 438-8833   FAX: (936) 438-8844E",K-12 (364 students)
Texas,Annapolis Christian Academy,phansen@aca-cc.org,http://www.aca-cc.org/,Mr. Peter Hansen                Mr. Mark Cox : 5/98 - MemberG,"ACCS Accredited Since May 20093875 S. Staples St, Corpus Christi, TX  78411(361) 991-6004   FAX: (361) 232-5629E",PreK3-12 (275 students)
Texas,Christian Heritage School,dcarr@chs-longview.com,http://www.chslongview.com/,"Mr. Doug Carr, Grammar and Logic School Head              Mr. Jim McCormick, Rhetoric School Head : 8/08 - MemberG","2715 FM 1844, Longview, TX 75605(903) 663-4151  FAX:  (903) 663-4587E",K-12 (281 students)
Texas,Coram Deo Academy,school@coramdeoacademy.org,http://www.coramdeoacademy.org/,  Mr. Bill Rector : 12/00 - MemberG,"   4900 Wichita Trail, Flower Mound, TX  75022(800) 465-0561 or (972) 691-5648   FAX: (972) 692-5140E",  K4-12 (1088 students)
Texas,Coram Deo Classical Academy,info@coramdeobrownsville.org,http://www.coramdeobrownsville.com,Mrs. Pam Kriegel : 6/06 - MemberG,"1175 W. Price Rd. Ste. 3, Brownsville, TX  78520(956) 982-2332  FAX: none availableE",K-10 (15 students)
Texas,Covenant Academy,laurie.brooks@covenantacademyhouston.org,http://www.covenantacademyhouston.org/,Mrs. Leslie Collins : 1/06 - MemberG," 11711 Telge Road, Cypress, TX  77429(281) 373-2233   FAX: (281) 582-8227E",K-11 (123 students)
Texas,Covenant Classical School,info@covenantfw.org,http://www.covenantfw.org/,"  Mr. Eric Cook, Headmaster : 12/99 - MemberG","    1701 Wind Star Way, Fort Worth, TX  76108(817) 820-0884   FAX:  (817) 246-5027E",K-12  (294 students)
Texas,The Covenant School,kschuck@covenantdallas.com,http://www.covenantdallas.com,"Dr. David Pitre, Head of School  : 11/14 - MemberG","7300 Valley View Lane, Dallas, TX  75240 (214) 358-5818  FAX: (214) 358-5809 E",K-12 (549 students)
Texas,First Classical Academy,firstclassical@fbckaty.com,http://www.fbckaty.com/children/fca,Bronson Stewart : 8/12 - MemberG,"600 Pin Oak Rd., Katy, TX  77494(281) 574-2047  FAX: None availableE",K-12 (35 students)
Texas,Geneva School of Boerne,BRyden@genevaschooltx.org,http://www.genevaschooltx.org/,"Mr. Brad Ryden, Head of School : 2/99 - MemberG","   113 Cascade Caverns Road, Boerne, TX  78015(830) 755-6101   FAX:  (830) 755-6102E",K-12  (664 students)
Texas,Gloria Deo Academy,jamie@gloriadeoacademy.net,http://www.gloriadeoacademy.net,"Ms. Jamie King, Dean of Admissions and Finance : 4/12 - MemberG","20475 Hwy. 46 W., Ste. 115-171, Spring Branch, TX  78070 (mailing address)1100 Bulverde Rd., Bulverde, TX  78163 (facility address)(830) 708-5463  FAX: none availableE",K-12 (115 students)
Texas,Good Shepherd Reformed Episcopal School,office@gsstyler.org,http://www.gsstyler.org/,  Fr. Daniel Sparks : 3/98 - MemberG,"   2525 Old Jacksonville Hwy., Tyler, TX  75701(903) 592-4045  FAX: (903) 596-7149E",K4-12 (109 students)
Texas,Grace Academy of Georgetown,headmaster@graceacademy-gt.org,http://www.graceacademy-gt.org/,David Diener : 5/01 - MemberG,"ACCS Accredited Since November 2014225 Grace Blvd., Georgetown, TX  78633(512) 864-9500  FAX: (512) 868-5429E",K-12 (214 students)
Texas,Grace Academy of North Texas,jody.capehart@graceacademy-nt.org,http://www.graceacademy-nt.org,"Jody Capehart, Head of School : 4/12 - MemberG","4255 E. Prosper Trail, Prosper, TX  75078(469) 287-7111  FAX: (972) 632-1729E",K-10 (150 students)
Texas,Grace Classical Academy,brucegca@gmail.com,http://www.graceclassical.com,"Bruce Williams, Head of School : 7/12 - MemberG","603 Meander Rd., Granbury, TX  76049(682) 936-4566  FAX: none availableE",PreK-5 (11 students)
Texas,Heritage School,ceggleston@austin.rr.com,http://www.heritage-school.net/,"Mr. Doug Carr, Grammar and Logic School Head              Mr. Jim McCormick, Rhetoric School Head : 8/08 - MemberG","2715 FM 1844, Longview, TX 75605(903) 663-4151  FAX:  (903) 663-4587E",K-12 (281 students)C
Texas,Oak Ridge Christian Academy,admin@oakridgechristian.org,http://www.oakridgechristian.org/,Pastor Jess Larson : 8/08 - MemberG,"27420 Robinson Rd, Conroe, TX 77385(281) 298-5800   FAX: (281) 292-2818E",PreK-12 (175 students)
Texas,Paratus Classical Academy,pam@paratusclassicalacademy.org,http://www.paratusclassicalacademy.org,"Pam Dollins, Head of School : 5/13 - MemberG","1415 S. Voss, Ste. 110-436, Houston, TX  77055 (Mailing address)1610 Campbell Rd., Houston, TX  77057 (Facility address)E",PreK-8 (64 students)
Texas,Providence Classical School,jweichbrodt@pcsclassical.org,http://www.pcsclassical.org/,  Jon Weichbrodt : 3/00 - MemberG,"ACCS Accredited Since April 20066006 Spring Cypress Rd, Spring, TX  77379(281) 320-0500   (281) 379-3050   FAX:  (281) 379-2039E",K-12 (337 students)
Texas,Providence Preparatory School,bret.billman@provprep.org,http://www.provprep.org,  Bret Billman : 11/10 - MemberG,"3809 S General Bruce Dr., Ste 103 PMB 8183, Temple TX 76502  (mailing address)506 N. Main St., Belton, TX  76513  (physical address)Ph 254-307-1165  FAX: 254-742-1718E",PreK-12 (210 students)
Texas,Regents Academy,regents_academy_office@yahoo.com,http://www.regentsacademy.com/,"  Mr. David Bryant, Administrator : 2/05 - MemberG","200 NE Stallings Drive, Nacogdoches, TX  75961(936) 559-7343  FAX: (936) 559-7344E",PreK4-12 (150 students)
Texas,Regents School of Austin,RSA@regents-austin.com,http://www.regentsschool.com/,"Rod Gilbert, Head of School : 7/94 - CharterG","ACCS Accredited Since April 2002 3230 Travis Country Circle, Austin, TX  78735(512) 899-8095   FAX:  (512) 899-8623E",K-12 (1003 students)
Texas,River Hills Christian Academy,principal@rhca.cc,http://www.rhca.cc,"Shayla Floyd, Principal : 4/14 - MemberG","PO Box 260607, Corpus Christi, TX  78426 (mailing address)16318 FM 624, Robstown, TX  78380 (facility address)(361) 933-1114  FAX: (361) 767-7422E",PreK-2 (16 students)
Texas,Sterling Classical School,info@sterlingclassicalschool.com,http://sterlingclassicalschool.com,"Sonya Dixon and Terry McKinney, Administrators              Pam Massie, Campus Administrator : 5/08 - MemberG","Suite 700, 11880 RR 2243, Leander, TX 78641(512) 259-2722   FAX: none availableE",K-12 (233 students)
Texas,The Cambridge School of Dallas,jweeks@cambridgedallas.org,http://www.cambridgedallas.org/,"Dr. B. Paul Wolfe, Headmaster : 9/10 - MemberG","3877 Walnut Hill Lane, Dallas, TX 75229(214) 357-2995  FAX: (214) 357-0880E",6-12  (109 students)
Texas,The Saint Timothy School,clinebarger@thechapelofthecross.com,http://www.thesainttimothyschool.org,"Rev. Chris Linebarger, School Administrator : 11/12 - MemberG","4333 Cole Ave., Dallas, TX  75205(214) 521-6062  FAX: (214) 521-5200E",K4-12 (25 students)
Texas,Trinity Classical School of Houston,headofschool@tcshouston.org,http://www.tcshouston.org/,"Neil Anderson, Administrator : 11/10G","7941 Katy Freeway #110, Houston, TX 77024 (mailing address)825 Bering Drive, Houston, TX  77057 (facility address)(281) 656-1880  Fax (713) 893-6134E",PreK4-8 (406 students)
Texas,Uvalde Classical Academy,info@uvaldeclassical.com,http://www.uvaldeclassical.org,"Rachel Hesse, Director : 10/13G","PO Box 2004, Uvalde, TX  78801 (mailing address)400 N. Getty, Uvalde, TX  78801 (facility address)(830) 591-2242  FAX: None availableE",K-12 (55 students)
Texas,Veritas Christian Academy,veritas@fbcdayton.com,http://www.veritasca.org/,  Lamia Raad : 4/03 - MemberG,"  7000 Ferris St., Bellaire, TX  77401(713) 773-9605   FAX:  (713) 773-9753E",PreK3-8  (157 students)V
Texas,Veritas Classical Academy,headmaster@veritasclassicalacademy.org,http://www.veritasclassicalacademy.org,"Mr. Aaron Laenger, Headmaster : 5/13 - MemberG","PO Box 5344, Beaumont, TX  77726 (mailing address)8220 Westgate Dr., Beaumont, TX  77706 (facility address)(409) 225-9107  FAX: (409) 225-9107E",PreK-7 (48 students)
Texas,"The Fundraising Resource Group, LLC",lneel@thefundraisingresource.com,http://www.thefundraisingresource.com,Lee Neel : 07/12 - Affiliate Business,"411 W 11th St., Houston, TX  77008(888) 522-1492  FAX: none availableE",""
Texas,"Home Education Partnership of Texas, Inc.",samsol.rh@gmail.com,http://www.heptx.com,"Joanne Juren : 4/06 - Affiliate BusinessLopez Family HomeschoolEl Paso, TXContact: Patrick Lopez : 6/05 - Affiliate Homeschool","11665 Fuqua, Ste. A-100, Houston, TX  77034(281) 922-0478   FAX: (281) 922-0504C",""
Texas,Mission Advancement Professionals,slehman@missionadvancement.com,http://www.missionadvancement.com,  Schuyler Lehman : 8/09 - Affiliate Business,"4100 West Eldorado Parkway, Suite 100-304, McKinney TX  75070(888) 540-0505   FAX: (972) 540-0753C",""
Texas,Novare Science and Math,info@novarescienceandmath.com,http://www.novarescienceandmath.com,John Mays : 11/12 - Affiliate Business,"PO Box 92934, Austin, TX 78709(888) 720-9953C",""
Texas,RenWeb School Management Software,bobby@heritagefamilychurch.org,http://www.renweb.com/,"Paul Baker : 4/08 - Affiliate BusinessRiley HomeschoolNacogdoches, TX 75961Contact: Mr. Stan Riley : 3/08 - Affiliate HomeschoolTreece Classical Christian CottageEuless, TXContact: Bobby Treece : 11/11 - Affiliate Homeschool","PO Box 1622, Burleson, TX 76097(866) 800-6593  FAX: (509) 267-2209C",""
Virginia,Ad Fontes Academy,dluckenbaugh@adfontes.com,http://www.adfontes.com/,"Mr. Dean Luckenbaugh, President : 1/98 - MemberGrades K-12 (198 students)","  ACCS Accredited Since May 2002PO Box 916, Centreville, VA  20122 (mailing address)15450 Lee Hwy., Centreville, VA  20122 (facility address)(703) 815-6022   FAX: (703) 815-2225E",""
Virginia,Appomattox Christian Academy,office.aca@appomattoxchristianacademy.com,http://www.appomattoxchristianacademy.org,"Mrs. Stacey Torrence, Headmaster  : 8/05 - MemberG"," PO Box 517, Appomattox, VA 24522 (mailing address)1916 Redfields RD, Appomattox, VA 24522 (facility address)(434) 352-7373  FAX: 434-352-0324E",K3-12 (75 students)
Virginia,Calvary Classical School,principle@calvaryclassical.org,http://www.calvaryclassical.org/,"  Mrs. Lori Rogers, Principal : 12/95 - MemberG"," 403 Whealton Road, Hampton, VA   23666(757) 262-0062   FAX:  (757)826-4917E",K3-6 (107 students)
Virginia,Cornerstone Christian Academy,cbrinson@cornerstoneabingdon.org,http://www.cornerstoneabingdon.org,"Clay Brinson, Head of School : 4/13 - MemberG","16210 Elementary Dr., Abingdon, VA  24212(276) 623-7164  FAX: none availableE",JK-12 (127 students)
Virginia,Cornerstone Christian Academy,marciesjones@gmail.com,http://www.ccaofva.org/,"Clay Brinson, Head of School : 4/13 - MemberG","16210 Elementary Dr., Abingdon, VA  24212(276) 623-7164  FAX: none availableE",JK-12 (127 students)C
Virginia,Dominion Christian School,ahenkle@dominionschool.com,http://www.dominionschool.com/,"  Janis R. Pierce, Lower School Principal                Matt Mitchell, Head of School : 5/00 - MemberG"," 10922 Vale Road, Oakton, VA   22124 (703) 758-1055   FAX:  (703) 758-1074E",K-12 (193 students)
Virginia,Eukarya Christian Academy,eukaryafc@gmail.com,http://www.eukaryaacademy.com,"Daniel Donnelly, Principal : 1/14 - MemberG","165 Agape Way, Stephens City, VA  22655(540) 722-5089  FAX: (540) 868-0061E",K-12 (72 students)
Virginia,Faith Christian School,jwalker@faithchristianroanoke.com,http://www.faithchristian-school.com/,"Mr. Peter Baur, Head of School : 8/06 - MemberG","3585 Buck Mountain Road, Roanoke, VA 24018(540) 769-5200   FAX: (540) 769-6030E",PreK-12 (262 students)
Virginia,Hunter Country Day School,dthompson@huntercds.org,http://www.huntercds.org,"Ann McLean, Head of School : 4/12 - MemberG","635 Manakin Road, Manakin-Sabot, VA  23103(804) 708-0048  FAX: none availableE",K-7 (55 students)
Virginia,Immanuel Lutheran School,school@immanuelalexandria.org,http://www.immanuelalexandria.org/school,"Julia Habrecht, Headmaster  : 01/08 - MemberG","109 Belleaire Road, Alexandria, VA 22301(703) 549-0155   FAX: none availableE",K-8 (124 students)
Virginia,New Covenant Schools,heaton@newcovenantschools.org,http://www.newcovenantschools.org/,"  Mr. John Heaton, Headmaster : 2/96 - CharterG","122 Fleetwood Drive, Lynchburg, VA  24501(434) 847-8313   FAX:  (434) 455-0214E",K4-12 (453 students)
Virginia,Oak Hill Christian School,office@oakhillk12.com,http://www.oakhillk12.com,"  Mr. Robert Thoburn, Headmaster : 10/03 - MemberG","11480 Sunset Hills Road, Reston,  VA   20190(703) 796-6887  FAX: (703) 796-0582E",K-12 (160 students)
Virginia,Providence Classical School,pcs@pcsvirginia.org,http://www.pcsvirginia.org/,"  Mrs. Susan Oweis, Head of School : 7/01 - MemberG"," 6000 Easter Circle, Williamsburg, VA   23188(757) 565-2900   FAX:  (757) 565-3720E",K-12 (134 students)
Virginia,Redeemer Classical School,accounting@redeemerclassical.org,http://www.redeemerclassical.org/,  Mrs. Teresa Patton :  4/07 - MemberG,"PO Box 737, Harrisonburg, VA 22803 (mailing address)1688 Indian Trail Rd., Keezletown, VA  22803 (facility address)(540) 437-0880  FAX: (888) 248-2415E",  K-8 (98 students)
Virginia,Regents School of Charlottesville,cpalumbo@regents-school.org,http://www.regents-school.org/,"Courtney Palumbo, Head of School : 11/11 - MemberG","3045 Ivy Rd., Charlottesville, VA 22903434-293-0633  FAX: 434-293-0633E",K-10 (95 students)
Virginia,St. Anne's Academy for Girls,st.annes.academy4girls@gmail.com,http://www.stannesacademy4girls.org,"Kathleen Katz, Headmistress : 11/11G","14540 John Marshall Highway, Gainesville, VA  20155703-753-1102E",PreK-7 (22 students)
Virginia,Summit Christian Academy  ,tgrimes@scaschools.org,http://www.scaschools.org,"Tim Grimes, Headmaster : 12/98 - MemberG","Upper School: 4209 Big Bethel Rd, Yorktown, VA  23693(757) 867-7005   FAX: (757) 867-8590Lower School: 69 Saunders Rd, Newport News, VA  23601(757) 599-9424   FAX: (757) 599-1898E",K4-12 (186 students)
Virginia,Tidewater Classical Academy,tca@greenrunbaptist.com,http://www.tidewaterclassical.com/,Deborah Cunningham : 5/08 - MemberG,"1201 Rosemont Rd., Virginia Beach, VA  23453(757) 427-5683   FAX: (757) 430-1040E",K-8 (39 students)
Virginia,Veritas Christian Academy,admin@veritasca.com,http://www.veritasca.com/,"Sean Elgut, Headmaster : 9/07 - MemberG","700 Oak Grove Rd, Chesapeake, VA 23320(757) 410-5095   FAX: (757) 410-5083E",K-12 (125 students)
Virginia,Veritas School  ,knix@veritasschool.com,http://www.veritasschool.com/,Mr. Keith Nix : 4/00 - MemberG,"ACCS Accredited since November 20123400 Brook Road, Richmond, VA 23227(804) 272-9517   FAX: (804) 272-9518E",K4-12 (365 students)
Virginia,BiblioPlan for Families,d_clinard@hotmail.com,http://www.biblioplan.net,"Rob and Julia Nalle : 5/13 - Affiliate BusinessClinard Home SchoolWarrenton, VAContact: Mark Clinard : 9/03 - Affiliate Homeschool","1872 Shiloh Church Rd., Palmyra, VA  22963(434) 589-4102  FAX: (434) 589-4102C",""
Virginia,"HistorConsulting, Inc",cnester@historcompanies.com,http://www.historcompanies.com,  Cheryl Nester : 1/10 - Affiliate Business,"PO Box 150, Thaxton, VA 24174(540) 580-2036 C",""
Virginia,Peace Hill Press,info@welltrainedmind.com,http://www.peacehillpress.com,  Susan Wise Bauer : 7/10 - Affiliate Business,"18021 The Glebe Lane, Charles City, VA  23030(804) 829-5043   FAX:  (804) 829-5704C",""
Washington,Cedar Tree Classical Christian School,arice@cedartreeschool.org,http://www.cedartreeschool.org/,"Tom Bradshaw, Headmaster : 9/00 - MemberG","ACCS Accredited since October 201220601 NE 29th Ave, Ridgefield, WA 98642(360) 887-0190  FAX:  none availableE",K-12 (157 students)
Washington,Coram Deo Academy,cdacademy.com@gmail.com,http://www.cdacademy.com,"Donald Van Dyken, Headmaster : 2/13 - MemberG","1632 George Washington Way, Richland, WA  99354(509) 460-7127  FAX: none availableE",K-12 (41 students)
Washington,Cornerstone Academy,michelle.jones@thecornerstoneacademy.org,http://www.thecornerstoneacademy.org,"Michelle Jones, Head of School : 5/14 - MemberG","16910 161st Ave. SE, Snohomish, WA  98290(425) 892-3030E",K-6 (50 students)
Washington,Evangel Classical School,jonathansarr@gmail.com,http://www.evangelcs.org,"Jonathan Sarr, Headmaster : 1/13 - MemberG","12012 51st Ave. NE, Marysville, WA  98271(425) 344-2789  FAX: none availableE",K-12 (26 students)
Washington,Island Christian Academy,bchittim@gmail.com,http://www.islandchristianacademy.com/,"Brenda Chittim, Administrator : 4/09 - MemberG","PO Box 1048, Langley, WA 98260 (mailing address)5373 Maxwelton Road, Langley, WA 98260 (facility address)(360) 221-0919   FAX: (360) 221-1653E",K-12 (75 students)
Washington,Paideia Classical School,paideiaschool@centurytel.net,http://paideiaclassicalschool.org,Mr. Scott Mapstead : 9/05 - MemberG,"PO Box 1875 (265 Price St.), Friday Harbor, WA 98250(360) 378-8322   FAX (360) 378-8929E",K - 8 (39 students)
Washington,Providence Classical Christian School,education@pccs.org,http://www.pccs.org/,"  Mr. Ryan Evans, Headmaster : 7/94 - CharterG","ACCS Accredited since June 200411727 NE 188th St., Kirkland, WA  98034(425) 774-6622   FAX:  (425) 820-4123E",PreK-12 (205 students)
Washington,Seattle Classical Christian School,nhartman@pscpa.com,http://www.seattleclassicalchristianschool.org/,"Mrs. Katie Hartman, Head of School : 1/12 - MemberG","1013 8th Ave., Seattle, WA 98104(206) 259-5831  FAX: None availableE",PreK-4 (62 students)
Washington,Summit Classical Christian School,info@summitclassical.org,http://www.summitclassical.org/,"Dr. Timothy Orton, Headmaster : 9/06 - MemberG","32725 SE 42nd Street, Fall City, WA  98024(425) 222-0564  FAX: (425) 222-6053E",K-6 (72 students) 
Washington,The Bear Creek School ,awilliams@tbcs.org,http://www.tbcs.org/,Patrick Carruth : 6/95 - CharterG,"    8905 - 208th Ave NE, Redmond, WA   98053(425) 898-1720   FAX:  (425) 898-1430E",PS-12 (764 students)
Washington,The Oaks: A Classical Christian Academy,charlie.dowers@theoakscca.org,http://www.theoakscca.org/,"Charlie Dowers, Head of School : 12/96 - MemberG","ACCS Accredited since January 2007    PO Box 141146, Spokane, WA   99214 (mailing address)2303 S. Bowdish Rd., Spokane Valley, WA  99206 (facility address)(509) 536-5955    FAX:  (509) 536-7877E",K-12 (281 students)
Washington,The River Academy,theriver@theriveracademy.org,http://www.theriveracademy.org/,"  Mr. Eric DeVries, Headmaster : 10/98 - MemberG","     PO Box 4485, Wenatchee, WA   98807(509) 665-2415   FAX:  (509) 662-9235E",PreK-12 (223 students)
Washington,Trinity Classical School,trinitybellingham@gmail.com,http://www.trinitybham.org,"Lisa Van Hofwegen, Administrator : 12/13 - MemberG","2826 Birchwood Ave., Bellingham, WA  98225(360) 306-8575  FAX: None availableE",PreK-4 (20 students)
Washington,Cornerstone Academy,michelle.jones@thecornerstoneacademy.org,http://thecornerstoneacademy.org/default.aspx,"Michelle Jones, Head of School : 5/14 - MemberG","16910 161st Ave. SE, Snohomish, WA  98290(425) 892-3030E",K-6 (50 students)E
West Virginia,Covenant School,info@covenantschoolwv.org,http://www.covenantschoolwv.org/,"  Mr. Shane Artrip, Secondary Administrator               Mindy Stanley, Grammar School Administrator : 12/95 - CharterG","2400 Johnstown Rd, Huntington, WV  25701-4738(304) 781-6741   FAX:  (304) 781-6742E",K-12 (153 students) 
Wisconsin,Baldwin Christian School,info@baldwinchristianschool.org,http://www.baldwinchristianschool.org,"Carolyn Martinson, Head of School : 6/08 - MemberG","893 Hwy 63, Baldwin, WI 54002(715) 684-2656   FAX: None availableE",K-12 (66 students)
Wisconsin,Charis Classical Academy,info@charisclassical.com,http://www.charisclassical.com,"Kim Nielson, Headmaster : 2/13 - MemberG","P.O. Box 5642, Madison, WI  53705 (mailing address)6200 Monona Dr., Monona, WI  53716 (facility address)(608) 250-0551  FAX: None availableE",PreK-6 (51 students)
Wisconsin,Providence Academy  ,info@providencegb.org,http://www.providencegb.org,"  Ron Jung, Administrator : 7/94 - CharterG","   1420 Division Street, Green Bay, WI  54303(920) 592-0890   FAX:  (920) 592-0935E",PreK-10 (142 students) 
Wyoming,Martin Luther Grammar School,revpaulcain@gmail.com,http://sheridanmlgs.blogspot.com/,"  Rev. Paul J. Cain, Headmaster : 11/04 - MemberG","1300 West 5th Street, Sheridan, WY  82801 (mailing address)1325 Burton Avenue (facility address)(307) 674-6434   FAX:  (307) 674-6435E",K-6  (19 students)
Wyoming,Timber Ridge Academy,heidi@timberridgeacademy.org,http://www.timberridgeacademy.org,"Heidi Somers, Head of School              Brent Harken, Administrator : 3/14 - MemberG","PO Box 1204, Jackson, WY  83001(307) 200-9564  FAX: None availableE",K-6 (15 students)
Wyoming,Veritas Academy,office@codyveritas.com,http://www.codyveritas.com,Erin Geving : 6/14 - MemberG,"PO Box 1581, Cody, WY  82414(307) 250-5167  FAX: None availableE",K-5 (4 students) 
